[Satellite]
VERSION=1.1
NAME=STARLINK-5233
NICKNAME=STARLINK-5233
TLE1=1 54160U 22141D   22321.58334491 -.00015585  00000+0 -10679-3 0  9994
TLE2=2 54160  53.2188  42.2162 0002717  16.3784 127.1184 15.73200114  1300
STATUS=0
